#aV2014  6  6  0  0  0.00000000     288 DD+AD WGS84 FIT  NGA
## 1795 432000.00000000   300.00000000 56814 0.0000000000000
+   31     1  2  3  4  5  6  7  8 10 11 12 13 14 15 16 17 18
+         19 20 21 22 23 24 25 26 27 28 29 30 31 32  0  0  0
+          0  0  0  0  0  0  0  0  0  0  0  0  0  0  0  0  0
+          0  0  0  0  0  0  0  0  0  0  0  0  0  0  0  0  0
+          0  0  0  0  0  0  0  0  0  0  0  0  0  0  0  0  0
++         2  2  2  2  2  2  2  2  2  2  2  2  2  2  2  2  2
++         2  2  2  2  2  2  2  2  2  2  2  2  2  2  0  0  0
++         0  0  0  0  0  0  0  0  0  0  0  0  0  0  0  0  0
++         0  0  0  0  0  0  0  0  0  0  0  0  0  0  0  0  0
++         0  0  0  0  0  0  0  0  0  0  0  0  0  0  0  0  0
%c cc cc ccc ccc cccc cccc cccc cccc ccccc ccccc ccccc ccccc
%c cc cc ccc ccc cccc cccc cccc cccc ccccc ccccc ccccc ccccc
%f  0.0000000  0.000000000  0.00000000000  0.000000000000000
%f  0.0000000  0.000000000  0.00000000000  0.000000000000000
%i    0    0    0    0      0      0      0      0         0
%i    0    0    0    0      0      0      0      0         0
/*      NGA, ST. LOUIS,MO.                                  
/*   EPHEMERIS COMPUTED FROM  1 DAYS OF DATA                
/*   EPOCHA SMOOTHER                                       
/* CCCCCCCCCCCCCCCCCCCCCCCCCCCCCCCCCCCCCCCCCCCCCCCCCCCCCCCCC
*  2014  6  6 16  0  0.00000000
P  1 -18113.594024 -13323.117324 -14279.217383     14.524741                    
V  1  18103.033225   1121.579237 -23920.899447      0.010933                    
P  2  -6155.181235  14892.685703  21354.428453    499.593081                    
V  2 -26196.165544  -4542.868388  -4934.374905      0.021727                    
P  3   2576.066231 -23120.068691 -13232.932905    374.572765                    
V  3  10593.755137 -12334.574617  24800.067251      0.048804                    
P  4 -20104.730495   8050.938582  15217.863322      7.094896                    
V  4 -19208.459122  -5553.546855 -21761.493857      0.002459                    
P  5    289.011921  23935.275363  11293.198045   -367.678978                    
V  5  -7798.709841 -12542.045017  26861.466508      0.027442                    
P  6 -18235.780470   9039.852335  17047.997335      7.887444                    
V  6 -21083.036732  -5315.359404 -19734.496337     -0.002931                    
P  7 -25924.063580  -6343.112412   1844.102269    354.657206                    
V  7   2595.673680  -1657.962651  31690.828943      0.042547                    
P  8 -25743.397195  -3062.093766  -6945.094275     14.060962                    
V  8  -8153.349202  -3640.729792  30529.670108      0.001601                    
P 10 -12008.367788  10952.154572  20596.670773   -128.640641                    
V 10 -10078.070094 -25162.041847   7802.887549     -0.016151                    
P 11 -11353.282682 -14430.623151 -19738.236265   -495.112650                    
V 11  23788.238115  -5109.767032  -9995.019237     -0.031133                    
P 12  11194.679630  23671.206967   5042.549298    209.802932                    
V 12    338.125899   6659.337694 -31349.506299      0.024951                    
P 13 -16280.953845  -3527.103091  20595.178353     -7.757845                    
V 13  18384.151939 -18903.809093  11061.258340     -0.038135                    
P 14  21171.652055 -12672.368569  -9402.886900    166.070289                    
V 14  -6775.773502  10542.745981 -28936.168156     -0.034654                    
P 15   2509.133156  18929.778453 -18398.331340   -183.760423                    
V 15 -15840.018416  17379.697186  16059.485517     -0.021608                    
P 16    680.452673 -23722.251455  11486.076942   -214.562139                    
V 16   6157.570125  13551.093993  27846.055798      0.020282                    
P 17 -20686.061351  13602.173528  -9042.453557    -99.197022                    
V 17   6086.781131 -10551.249491 -29189.415870     -0.029801                    
P 18  17513.320121   7874.103388 -18026.188483    323.831297                    
V 18   6657.402381  22961.101045  15763.892630      0.022586                    
P 19   1713.854289 -19339.442847 -18056.699045   -461.188137                    
V 19  17349.326473 -14892.664543  18181.129555     -0.021740                    
P 20 -14631.479198 -21219.663468   6372.017831    197.196244                    
V 20    -10.663398  -9132.544774 -29507.907581      0.039755                    
P 21  26512.984113   3635.531329   -910.067431   -365.448017                    
V 21   1334.802748   3615.637204  30793.539759     -0.021970                    
P 22  14303.245545  -7079.020789 -21010.458840    240.008607                    
V 22   9982.685720  25453.352542  -1925.673682      0.030762                    
P 23  -8598.663236 -13362.634445  21338.566157    -26.560293                    
V 23  17952.373436 -20092.082958  -5795.755043     -0.030460                    
P 24  13958.225012  14595.243961 -17323.491780    -29.642034                    
V 24 -21924.222598  -1751.639106 -19073.375466     -0.006890                    
P 25  16302.458188  14645.085803  15026.707170     24.662525                    
V 25   5152.756062  18492.598431 -23364.616053      0.002935                    
P 26  -9700.452572  21531.260099 -12512.530816     55.220196                    
V 26 -12013.989223   9098.358853  26646.023877     -0.121205                    
P 27  10886.589236 -22604.385881  -8628.936568    -12.022221                    
V 27   8945.830677  -6828.982843  29260.114625      0.026150                    
P 28 -14399.785949   1788.632611 -21653.021851    360.341323                    
V 28  -8107.735918 -27718.073045   2893.211945      0.027268                    
P 29  15876.896768   3965.789127  20946.700304    537.847315                    
V 29 -17393.682761  20002.271108   9460.583506      0.027198                    
P 30 -25251.493751   -371.003629  -8293.147736    -22.162257                    
V 30  -9545.033621  -5131.357253  29293.280457     -0.062900                    
P 31  17423.969153  -8992.545172  18209.399180    334.098465                    
V 31  21998.852615   5536.377717 -18169.008024     -0.000777                    
P 32  -4521.289235 -26212.304698  -3648.943729   -412.720300                    
V 32   3867.525707   3743.163533 -30663.956761      0.082555                    
EOF
